start=new Date('2022-06-03T00:00:00.000Z').valueOf();
sats=[{"MEAN_MOTION":"15.06395128","BSTAR":"0.00008599600000","GP_ID":"205209378","MEAN_MOTION_DOT":"0.00000999","COUNTRY_CODE":"US","PERIOD":"95.592","INCLINATION":"53.0532","TLE_LINE1":"1 46041U 20055Q   22153.81476397  .00000999  00000-0  85996-4 0  9993","SITE":"AFETR","EPHEMERIS_TYPE":"0","FILE":"3477983","ELEMENT_SET_NO":"999","REV_AT_EPOCH":"10148","RCS_SIZE":"LARGE","LAUNCH_DATE":"2020-08-07","CLASSIFICATION_TYPE":"U","SEMIMAJOR_AXIS":"6925.363","APOAPSIS":"548.403","PERIAPSIS":"546.054","TIME_SYSTEM":"UTC","MEAN_MOTION_DDOT":"0.0000000000000","DECAY_DATE":null,"OBJECT_TYPE":"PAYLOAD","ARG_OF_PERICENTER":"59.4087","MEAN_ELEMENT_THEORY":"SGP4","MEAN_ANOMALY":"300.7069","ECCENTRICITY":"0.00016960","CENTER_NAME":"EARTH","EPOCH":"2022-06-02T19:33:15.607008","TLE_LINE2":"2 46041  53.0532 183.1619 0001696  59.4087 300.7069 15.06395128101488","NORAD_CAT_ID":"46041","OBJECT_ID":"2020-055Q","REF_FRAME":"TEME","RA_OF_ASC_NODE":"183.1619","OBJECT_NAME":"STARLINK-1580"},{"TLE_LINE2":"2 46042  53.0531 183.2368 0001542  55.0541 305.0593 15.06399420101475","NORAD_CAT_ID":"46042","OBJECT_NAME":"STARLINK-1581","RA_OF_ASC_NODE":"183.2368","OBJECT_ID":"2020-055R","REF_FRAME":"TEME","MEAN_ANOMALY":"305.0593","ECCENTRICITY":"0.00015420","EPOCH":"2022-06-02T19:08:03.917184","CENTER_NAME":"EARTH","TIME_SYSTEM":"UTC","ARG_OF_PERICENTER":"55.0541","MEAN_ELEMENT_THEORY":"SGP4","DECAY_DATE":null,"MEAN_MOTION_DDOT":"0.0000000000000","OBJECT_TYPE":"PAYLOAD","APOAPSIS":"548.283","LAUNCH_DATE":"2020-08-07","SEMIMAJOR_AXIS":"6925.350","RCS_SIZE":"LARGE","CLASSIFICATION_TYPE":"U","PERIAPSIS":"546.147","REV_AT_EPOCH":"10147","FILE":"3477983","EPHEMERIS_TYPE":"0","SITE":"AFETR","ELEMENT_SET_NO":"999","PERIOD":"95.592","COUNTRY_CODE":"US","MEAN_MOTION_DOT":"0.00001073","TLE_LINE1":"1 46042U 20055R   22153.79726756  .00001073  00000-0  90932-4 0  9998","INCLINATION":"53.0531","GP_ID":"205210130","BSTAR":"0.00009093200000","MEAN_MOTION":"15.06399420"},{"INCLINATION":"53.0534","TLE_LINE1":"1 46043U 20055S   22153.78989423 -.00000607  00000-0 -21871-4 0  9990","MEAN_MOTION_DOT":"-0.00000607","COUNTRY_CODE":"US","PERIOD":"95.592","MEAN_MOTION":"15.06395464","BSTAR":"-0.00002187100000","GP_ID":"205210379","REV_AT_EPOCH":"10150","ELEMENT_SET_NO":"999","EPHEMERIS_TYPE":"0","SITE":"AFETR","FILE":"3477983","DECAY_DATE":null,"MEAN_MOTION_DDOT":"0.0000000000000","OBJECT_TYPE":"PAYLOAD","MEAN_ELEMENT_THEORY":"SGP4","ARG_OF_PERICENTER":"62.9495","TIME_SYSTEM":"UTC","PERIAPSIS":"546.117","LAUNCH_DATE":"2020-08-07","SEMIMAJOR_AXIS":"6925.362","RCS_SIZE":"LARGE","CLASSIFICATION_TYPE":"U","APOAPSIS":"548.338","REF_FRAME":"TEME","OBJECT_ID":"2020-055S","OBJECT_NAME":"STARLINK-1582","RA_OF_ASC_NODE":"183.2850","TLE_LINE2":"2 46043  53.0534 183.2850 0001603  62.9495 297.1658 15.06395464101509","NORAD_CAT_ID":"46043","CENTER_NAME":"EARTH","EPOCH":"2022-06-02T18:57:26.861472","ECCENTRICITY":"0.00016030","MEAN_ANOMALY":"297.1658"},{"DECAY_DATE":null,"MEAN_MOTION_DDOT":"0.0000000000000","OBJECT_TYPE":"PAYLOAD","ARG_OF_PERICENTER":"67.3690","MEAN_ELEMENT_THEORY":"SGP4","TIME_SYSTEM":"UTC","PERIAPSIS":"546.256","APOAPSIS":"548.216","RCS_SIZE":"LARGE","LAUNCH_DATE":"2020-08-07","CLASSIFICATION_TYPE":"U","SEMIMAJOR_AXIS":"6925.371","RA_OF_ASC_NODE":"183.2070","OBJECT_NAME":"STARLINK-1584","OBJECT_ID":"2020-055T","REF_FRAME":"TEME","NORAD_CAT_ID":"46044","TLE_LINE2":"2 46044  53.0545 183.2070 0001415  67.3690 292.7448 15.06392755101512","CENTER_NAME":"EARTH","EPOCH":"2022-06-02T19:18:40.870080","MEAN_ANOMALY":"292.7448","ECCENTRICITY":"0.00014150","TLE_LINE1":"1 46044U 20055T   22153.80463970 -.00000979  00000-0 -46832-4 0  9994","INCLINATION":"53.0545","COUNTRY_CODE":"US","PERIOD":"95.593","MEAN_MOTION_DOT":"-0.00000979","GP_ID":"205208628","BSTAR":"-0.00004683200000","MEAN_MOTION":"15.06392755","REV_AT_EPOCH":"10151","ELEMENT_SET_NO":"999","FILE":"3477983","SITE":"AFETR","EPHEMERIS_TYPE":"0"},{"MEAN_MOTION":"15.06408527","GP_ID":"205208878","BSTAR":"0.00018743000000","MEAN_MOTION_DOT":"0.00002512","COUNTRY_CODE":"US","PERIOD":"95.592","INCLINATION":"53.0548","TLE_LINE1":"1 46045U 20055U   22153.81569189  .00002512  00000-0  18743-3 0  9997","EPHEMERIS_TYPE":"0","SITE":"AFETR","FILE":"3477983","ELEMENT_SET_NO":"999","REV_AT_EPOCH":"10149","RCS_SIZE":"LARGE","LAUNCH_DATE":"2020-08-07","SEMIMAJOR_AXIS":"6925.322","CLASSIFICATION_TYPE":"U","APOAPSIS":"548.446","PERIAPSIS":"545.929","TIME_SYSTEM":"UTC","MEAN_MOTION_DDOT":"0.0000000000000","DECAY_DATE":null,"OBJECT_TYPE":"PAYLOAD","MEAN_ELEMENT_THEORY":"SGP4","ARG_OF_PERICENTER":"58.8078","MEAN_ANOMALY":"301.3089","ECCENTRICITY":"0.00018170","CENTER_NAME":"EARTH","EPOCH":"2022-06-02T19:34:35.779296","TLE_LINE2":"2 46045  53.0548 183.1557 0001817  58.8078 301.3089 15.06408527101496","NORAD_CAT_ID":"46045","OBJECT_ID":"2020-055U","REF_FRAME":"TEME","OBJECT_NAME":"STARLINK-1591","RA_OF_ASC_NODE":"183.1557"},{"COUNTRY_CODE":"US","PERIOD":"91.193","MEAN_MOTION_DOT":"0.00090746","TLE_LINE1":"1 46046U 20055V   22153.23091031  .00090746  00000-0  49709-3 0  9992","INCLINATION":"53.0493","BSTAR":"0.00049709000000","GP_ID":"205174299","MEAN_MOTION":"15.79075296","REV_AT_EPOCH":"10289","FILE":"3477482","SITE":"AFETR","EPHEMERIS_TYPE":"0","ELEMENT_SET_NO":"999","TIME_SYSTEM":"UTC","DECAY_DATE":null,"OBJECT_TYPE":"PAYLOAD","MEAN_MOTION_DDOT":"0.0000000000000","ARG_OF_PERICENTER":"107.3754","MEAN_ELEMENT_THEORY":"SGP4","APOAPSIS":"336.993","RCS_SIZE":"LARGE","LAUNCH_DATE":"2020-08-07","SEMIMAJOR_AXIS":"6711.196","CLASSIFICATION_TYPE":"U","PERIAPSIS":"329.130","NORAD_CAT_ID":"46046","TLE_LINE2":"2 46046  53.0493  79.1735 0005858 107.3754 252.7907 15.79075296102894","OBJECT_NAME":"STARLINK-1514","RA_OF_ASC_NODE":"79.1735","REF_FRAME":"TEME","OBJECT_ID":"2020-055V","ECCENTRICITY":"0.00058580","MEAN_ANOMALY":"252.7907","CENTER_NAME":"EARTH","EPOCH":"2022-06-02T05:32:30.650784"},{"RA_OF_ASC_NODE":"173.3665","OBJECT_NAME":"STARLINK-1524","OBJECT_ID":"2020-055W","REF_FRAME":"TEME","NORAD_CAT_ID":"46047","TLE_LINE2":"2 46047  53.0531 173.3665 0001333  59.5243 300.5877 15.06402349101645","CENTER_NAME":"EARTH","EPOCH":"2022-06-02T18:26:55.176288","ECCENTRICITY":"0.00013330","MEAN_ANOMALY":"300.5877","OBJECT_TYPE":"PAYLOAD","DECAY_DATE":null,"MEAN_MOTION_DDOT":"0.0000000000000","MEAN_ELEMENT_THEORY":"SGP4","ARG_OF_PERICENTER":"59.5243","TIME_SYSTEM":"UTC","PERIAPSIS":"546.283","APOAPSIS":"548.130","RCS_SIZE":"LARGE","LAUNCH_DATE":"2020-08-07","SEMIMAJOR_AXIS":"6925.341","CLASSIFICATION_TYPE":"U","REV_AT_EPOCH":"10164","ELEMENT_SET_NO":"999","FILE":"3477983","SITE":"AFETR","EPHEMERIS_TYPE":"0","TLE_LINE1":"1 46047U 20055W   22153.76869417  .00001300  00000-0  10617-3 0  9996","INCLINATION":"53.0531","COUNTRY_CODE":"US","PERIOD":"95.592","MEAN_MOTION_DOT":"0.00001300","GP_ID":"205209879","BSTAR":"0.00010617000000","MEAN_MOTION":"15.06402349"},{"EPHEMERIS_TYPE":"0","SITE":"AFETR","FILE":"3477983","ELEMENT_SET_NO":"999","REV_AT_EPOCH":"10162","MEAN_MOTION":"15.06396307","GP_ID":"205209129","BSTAR":"0.00009294000000","MEAN_MOTION_DOT":"0.00001103","PERIOD":"95.592","COUNTRY_CODE":"US","INCLINATION":"53.0550","TLE_LINE1":"1 46048U 20055X   22153.76502615  .00001103  00000-0  92940-4 0  9992","MEAN_ANOMALY":"300.9703","ECCENTRICITY":"0.00017400","EPOCH":"2022-06-02T18:21:38.259360","CENTER_NAME":"EARTH","TLE_LINE2":"2 46048  53.0550 173.3956 0001740  59.1457 300.9703 15.06396307101621","NORAD_CAT_ID":"46048","OBJECT_ID":"2020-055X","REF_FRAME":"TEME","RA_OF_ASC_NODE":"173.3956","OBJECT_NAME":"STARLINK-1527","RCS_SIZE":"LARGE","LAUNCH_DATE":"2020-08-07","SEMIMAJOR_AXIS":"6925.360","CLASSIFICATION_TYPE":"U","APOAPSIS":"548.430","PERIAPSIS":"546.020","TIME_SYSTEM":"UTC","ARG_OF_PERICENTER":"59.1457","MEAN_ELEMENT_THEORY":"SGP4","DECAY_DATE":null,"MEAN_MOTION_DDOT":"0.0000000000000","OBJECT_TYPE":"PAYLOAD"},{"REF_FRAME":"TEME","OBJECT_ID":"2020-055Y","RA_OF_ASC_NODE":"173.4085","OBJECT_NAME":"STARLINK-1530","NORAD_CAT_ID":"46049","TLE_LINE2":"2 46049  53.0542 173.4085 0001754  49.0029 311.1111 15.06396575101652","CENTER_NAME":"EARTH","EPOCH":"2022-06-02T18:16:18.933600","MEAN_ANOMALY":"311.1111","ECCENTRICITY":"0.00017540","DECAY_DATE":null,"OBJECT_TYPE":"PAYLOAD","MEAN_MOTION_DDOT":"0.0000000000000","MEAN_ELEMENT_THEORY":"SGP4","ARG_OF_PERICENTER":"49.0029","TIME_SYSTEM":"UTC","PERIAPSIS":"546.009","RCS_SIZE":"LARGE","LAUNCH_DATE":"2020-08-07","CLASSIFICATION_TYPE":"U","SEMIMAJOR_AXIS":"6925.359","APOAPSIS":"548.439","REV_AT_EPOCH":"10165","ELEMENT_SET_NO":"999","SITE":"AFETR","EPHEMERIS_TYPE":"0","FILE":"3477983","INCLINATION":"53.0542","TLE_LINE1":"1 46049U 20055Y   22153.76133025  .00000916  00000-0  80378-4 0  9991","MEAN_MOTION_DOT":"0.00000916","COUNTRY_CODE":"US","PERIOD":"95.592","MEAN_MOTION":"15.06396575","GP_ID":"205209379","BSTAR":"0.00008037800000"},{"PERIAPSIS":"546.287","SEMIMAJOR_AXIS":"6925.371","LAUNCH_DATE":"2020-08-07","RCS_SIZE":"LARGE","CLASSIFICATION_TYPE":"U","APOAPSIS":"548.185","DECAY_DATE":null,"MEAN_MOTION_DDOT":"0.0000000000000","OBJECT_TYPE":"PAYLOAD","ARG_OF_PERICENTER":"56.8845","MEAN_ELEMENT_THEORY":"SGP4","TIME_SYSTEM":"UTC","CENTER_NAME":"EARTH","EPOCH":"2022-06-02T08:00:37.590624","ECCENTRICITY":"0.00013700","MEAN_ANOMALY":"303.2275","REF_FRAME":"TEME","OBJECT_ID":"2020-055AA","OBJECT_NAME":"STARLINK-1540","RA_OF_ASC_NODE":"175.3183","TLE_LINE2":"2 46051  53.0539 175.3183 0001370  56.8845 303.2275 15.06392739101591","NORAD_CAT_ID":"46051","MEAN_MOTION":"15.06392739","GP_ID":"205174799","BSTAR":"0.00007951200000","INCLINATION":"53.0539","TLE_LINE1":"1 46051U 20055AA  22153.33376841  .00000903  00000-0  79512-4 0  9996","MEAN_MOTION_DOT":"0.00000903","COUNTRY_CODE":"US","PERIOD":"95.593","ELEMENT_SET_NO":"999","EPHEMERIS_TYPE":"0","SITE":"AFETR","FILE":"3477482","REV_AT_EPOCH":"10159"}];
